[{"OBJECT_NAME":"GEESAT-1 02","OBJECT_ID":"2022-058B","EPOCH":"2026-03-09T21:31:57.814752","MEAN_MOTION":14.81023731,"ECCENTRICITY":0.0023088,"INCLINATION":50.0005,"RA_OF_ASC_NODE":301.1233,"ARG_OF_PERICENTER":231.8367,"MEAN_ANOMALY":128.049,"EPHEMERIS_TYPE":0,"CLASSIFICATION_TYPE":"U","NORAD_CAT_ID":52786,"ELEMENT_SET_NO":999,"REV_AT_EPOCH":20521,"BSTAR":0.00032711202,"MEAN_MOTION_DOT":2.348e-5,"MEAN_MOTION_DDOT":0},{"OBJECT_NAME":"SL-24 DEB","OBJECT_ID":"2010-013C","EPOCH":"2026-03-09T22:17:22.689312","MEAN_MOTION":14.74957263,"ECCENTRICITY":0.00200584,"INCLINATION":92.0254,"RA_OF_ASC_NODE":280.3457,"ARG_OF_PERICENTER":15.1794,"MEAN_ANOMALY":345.0024,"EPHEMERIS_TYPE":0,"CLASSIFICATION_TYPE":"U","NORAD_CAT_ID":36510,"ELEMENT_SET_NO":999,"REV_AT_EPOCH":84986,"BSTAR":0.00043581217,"MEAN_MOTION_DOT":2.939e-5,"MEAN_MOTION_DDOT":0}]
